{"fetched_at":"2026-07-06T08:46:38.495Z","source":"https://celestrak.org/NORAD/elements/gp.php?GROUP=oneweb&FORMAT=JSON","constellation":"oneweb","records":[{"OBJECT_NAME":"ONEWEB-0033","OBJECT_ID":"2020-008M","EPOCH":"2026-07-05T12:44:25.312128","CLASSIFICATION_TYPE":"U","MEAN_MOTION":13.1037337,"ECCENTRICITY":0.0002088,"INCLINATION":87.8819,"RA_OF_ASC_NODE":32.6218,"ARG_OF_PERICENTER":99.5335,"MEAN_ANOMALY":260.6028,"EPHEMERIS_TYPE":0,"NORAD_CAT_ID":45142,"ELEMENT_SET_NO":999,"REV_AT_EPOCH":31061,"BSTAR":-0.0016721,"MEAN_MOTION_DOT":-0.00000571,"MEAN_MOTION_DDOT":0},{"OBJECT_NAME":"ONEWEB-0035","OBJECT_ID":"2020-008N","EPOCH":"2026-07-05T02:14:14.449920","CLASSIFICATION_TYPE":"U","MEAN_MOTION":13.10373879,"ECCENTRICITY":0.0001929,"INCLINATION":87.8818,"RA_OF_ASC_NODE":32.7021,"ARG_OF_PERICENTER":88.0884,"MEAN_ANOMALY":272.0465,"EPHEMERIS_TYPE":0,"NORAD_CAT_ID":45143,"ELEMENT_SET_NO":999,"REV_AT_EPOCH":31028,"BSTAR":0.0013852,"MEAN_MOTION_DOT":0.00000496,"MEAN_MOTION_DDOT":0},{"OBJECT_NAME":"ONEWEB-0036","OBJECT_ID":"2020-008P","EPOCH":"2026-07-05T12:41:48.524640","CLASSIFICATION_TYPE":"U","MEAN_MOTION":13.10369626,"ECCENTRICITY":0.0001791,"INCLINATION":87.8834,"RA_OF_ASC_NODE":32.6313,"ARG_OF_PERICENTER":79.575,"MEAN_ANOMALY":280.5579,"EPHEMERIS_TYPE":0,"NORAD_CAT_ID":45144,"ELEMENT_SET_NO":999,"REV_AT_EPOCH":31076,"BSTAR":-0.0016609,"MEAN_MOTION_DOT":-0.00000567,"MEAN_MOTION_DDOT":0},{"OBJECT_NAME":"ONEWEB-0038","OBJECT_ID":"2020-008Q","EPOCH":"2026-07-05T11:31:20.125056","CLASSIFICATION_TYPE":"U","MEAN_MOTION":13.11416246,"ECCENTRICITY":0.0001235,"INCLINATION":87.8895,"RA_OF_ASC_NODE":17.4369,"ARG_OF_PERICENTER":151.9303,"MEAN_ANOMALY":208.1891,"EPHEMERIS_TYPE":0,"NORAD_CAT_ID":45145,"ELEMENT_SET_NO":999,"REV_AT_EPOCH":31272,"BSTAR":-0.0014592,"MEAN_MOTION_DOT":-0.00000504,"MEAN_MOTION_DDOT":0},{"OBJECT_NAME":"ONEWEB-0039","OBJECT_ID":"2020-008R","EPOCH":"2026-07-05T12:49:19.384896","CLASSIFICATION_TYPE":"U","MEAN_MOTION":13.10372796,"ECCENTRICITY":0.0001396,"INCLINATION":87.8813,"RA_OF_ASC_NODE":32.6117,"ARG_OF_PERICENTER":70.338,"MEAN_ANOMALY":289.7898,"EPHEMERIS_TYPE":0,"NORAD_CAT_ID":45146,"ELEMENT_SET_NO":999,"REV_AT_EPOCH":31056,"BSTAR":-0.00063583,"MEAN_MOTION_DOT":-0.00000209,"MEAN_MOTION_DDOT":0},{"OBJECT_NAME":"ONEWEB-0040","OBJECT_ID":"2020-008S","EPOCH":"2026-07-05T01:39:47.691936","CLASSIFICATION_TYPE":"U","MEAN_MOTION":13.10372749,"ECCENTRICITY":0.0001988,"INCLINATION":87.8818,"RA_OF_ASC_NODE":32.7151,"ARG_OF_PERICENTER":78.1077,"MEAN_ANOMALY":282.0273,"EPHEMERIS_TYPE":0,"NORAD_CAT_ID":45147,"ELEMENT_SET_NO":999,"REV_AT_EPOCH":31020,"BSTAR":-0.0016991,"MEAN_MOTION_DOT":-0.0000058,"MEAN_MOTION_DDOT":0},{"OBJECT_NAME":"ONEWEB-0043","OBJECT_ID":"2020-008U","EPOCH":"2026-07-05T12:42:10.935936","CLASSIFICATION_TYPE":"U","MEAN_MOTION":13.10368269,"ECCENTRICITY":0.0001523,"INCLINATION":87.8825,"RA_OF_ASC_NODE":32.6124,"ARG_OF_PERICENTER":71.9633,"MEAN_ANOMALY":288.166,"EPHEMERIS_TYPE":0,"NORAD_CAT_ID":45149,"ELEMENT_SET_NO":999,"REV_AT_EPOCH":31058,"BSTAR":-0.0017522,"MEAN_MOTION_DOT":-0.00000599,"MEAN_MOTION_DDOT":0},{"OBJECT_NAME":"ONEWEB-0044","OBJECT_ID":"2020-008V","EPOCH":"2026-07-05T02:23:52.561824","CLASSIFICATION_TYPE":"U","MEAN_MOTION":13.10375576,"ECCENTRICITY":0.0001799,"INCLINATION":87.8827,"RA_OF_ASC_NODE":32.6989,"ARG_OF_PERICENTER":80.8866,"MEAN_ANOMALY":279.2465,"EPHEMERIS_TYPE":0,"NORAD_CAT_ID":45150,"ELEMENT_SET_NO":999,"REV_AT_EPOCH":31082,"BSTAR":0.0018414,"MEAN_MOTION_DOT":0.00000656,"MEAN_MOTION_DDOT":0},{"OBJECT_NAME":"ONEWEB-0045","OBJECT_ID":"2020-008W","EPOCH":"2026-07-05T11:23:48.799104","CLASSIFICATION_TYPE":"U","MEAN_MOTION":13.11415175,"ECCENTRICITY":0.0001711,"INCLINATION":87.8889,"RA_OF_ASC_NODE":17.4192,"ARG_OF_PERICENTER":87.7738,"MEAN_ANOMALY":272.3586,"EPHEMERIS_TYPE":0,"NORAD_CAT_ID":45151,"ELEMENT_SET_NO":999,"REV_AT_EPOCH":31280,"BSTAR":-0.0013137,"MEAN_MOTION_DOT":-0.00000453,"MEAN_MOTION_DDOT":0},{"OBJECT_NAME":"ONEWEB-0047","OBJECT_ID":"2020-008X","EPOCH":"2026-07-05T13:13:34.374720","CLASSIFICATION_TYPE":"U","MEAN_MOTION":13.10374415,"ECCENTRICITY":0.0001794,"INCLINATION":87.8828,"RA_OF_ASC_NODE":32.6083,"ARG_OF_PERICENTER":92.7507,"MEAN_ANOMALY":267.3825,"EPHEMERIS_TYPE":0,"NORAD_CAT_ID":45152,"ELEMENT_SET_NO":999,"REV_AT_EPOCH":31060,"BSTAR":0.0011182,"MEAN_MOTION_DOT":0.00000403,"MEAN_MOTION_DDOT":0},{"OBJECT_NAME":"ONEWEB-0048","OBJECT_ID":"2020-008Y","EPOCH":"2026-07-05T13:06:25.799616","CLASSIFICATION_TYPE":"U","MEAN_MOTION":13.10375945,"ECCENTRICITY":0.0001805,"INCLINATION":87.882,"RA_OF_ASC_NODE":32.6289,"ARG_OF_PERICENTER":88.4892,"MEAN_ANOMALY":271.6442,"EPHEMERIS_TYPE":0,"NORAD_CAT_ID":45153,"ELEMENT_SET_NO":999,"REV_AT_EPOCH":31021,"BSTAR":-0.00050614,"MEAN_MOTION_DOT":-0.00000164,"MEAN_MOTION_DDOT":0},{"OBJECT_NAME":"ONEWEB-0049","OBJECT_ID":"2020-008Z","EPOCH":"2026-07-05T13:11:06.990144","CLASSIFICATION_TYPE":"U","MEAN_MOTION":13.10374115,"ECCENTRICITY":0.0002087,"INCLINATION":87.8818,"RA_OF_ASC_NODE":32.6174,"ARG_OF_PERICENTER":75.9625,"MEAN_ANOMALY":284.1735,"EPHEMERIS_TYPE":0,"NORAD_CAT_ID":45154,"ELEMENT_SET_NO":999,"REV_AT_EPOCH":31043,"BSTAR":0.00086225,"MEAN_MOTION_DOT":0.00000314,"MEAN_MOTION_DDOT":0},{"OBJECT_NAME":"ONEWEB-0051","OBJECT_ID":"2020-008AA","EPOCH":"2026-07-05T11:21:23.011200","CLASSIFICATION_TYPE":"U","MEAN_MOTION":13.1141575,"ECCENTRICITY":0.0001855,"INCLINATION":87.888,"RA_OF_ASC_NODE":17.4259,"ARG_OF_PERICENTER":89.1503,"MEAN_ANOMALY":270.9838,"EPHEMERIS_TYPE":0,"NORAD_CAT_ID":45155,"ELEMENT_SET_NO":999,"REV_AT_EPOCH":31348,"BSTAR":-0.001007,"MEAN_MOTION_DOT":-0.00000344,"MEAN_MOTION_DDOT":0},{"OBJECT_NAME":"ONEWEB-0052","OBJECT_ID":"2020-008AB","EPOCH":"2026-07-05T13:40:54.159456","CLASSIFICATION_TYPE":"U","MEAN_MOTION":13.10372459,"ECCENTRICITY":0.00019535,"INCLINATION":87.882,"RA_OF_ASC_NODE":32.6005,"ARG_OF_PERICENTER":75.1364,"MEAN_ANOMALY":284.998,"EPHEMERIS_TYPE":0,"NORAD_CAT_ID":45156,"ELEMENT_SET_NO":999,"REV_AT_EPOCH":31034,"BSTAR":0.0014325296,"MEAN_MOTION_DOT":0.00000513,"MEAN_MOTION_DDOT":0},{"OBJECT_NAME":"ONEWEB-0053","OBJECT_ID":"2020-008AC","EPOCH":"2026-07-05T12:37:05.232000","CLASSIFICATION_TYPE":"U","MEAN_MOTION":13.1037214,"ECCENTRICITY":0.00017,"INCLINATION":87.8817,"RA_OF_ASC_NODE":32.6297,"ARG_OF_PERICENTER":70.7896,"MEAN_ANOMALY":289.3415,"EPHEMERIS_TYPE":0,"NORAD_CAT_ID":45157,"ELEMENT_SET_NO":999,"REV_AT_EPOCH":31031,"BSTAR":-0.0019532,"MEAN_MOTION_DOT":-0.00000669,"MEAN_MOTION_DDOT":0},{"OBJECT_NAME":"ONEWEB-0054","OBJECT_ID":"2020-008AD","EPOCH":"2026-07-05T02:28:45.373152","CLASSIFICATION_TYPE":"U","MEAN_MOTION":13.10374317,"ECCENTRICITY":0.0001889,"INCLINATION":87.8826,"RA_OF_ASC_NODE":32.6986,"ARG_OF_PERICENTER":83.9705,"MEAN_ANOMALY":276.1637,"EPHEMERIS_TYPE":0,"NORAD_CAT_ID":45158,"ELEMENT_SET_NO":999,"REV_AT_EPOCH":31037,"BSTAR":0.001964,"MEAN_MOTION_DOT":0.00000698,"MEAN_MOTION_DDOT":0}]}
