ONEWEB-0033             
1 45142U 20008M   26186.53084852 -.00000571  00000+0 -16721-2 0  9997
2 45142  87.8819  32.6218 0002087  99.5335 260.6028 13.10373370310615
ONEWEB-0035             
1 45143U 20008N   26186.09322281  .00000496  00000+0  13852-2 0  9996
2 45143  87.8818  32.7021 0001928  88.0884 272.0465 13.10373880310284
ONEWEB-0036             
1 45144U 20008P   26186.52903386 -.00000567  00000+0 -16609-2 0  9990
2 45144  87.8834  32.6313 0001790  79.5750 280.5579 13.10369626310766
ONEWEB-0038             
1 45145U 20008Q   26186.48009404 -.00000504  00000+0 -14592-2 0  9994
2 45145  87.8895  17.4369 0001235 151.9303 208.1891 13.11416247312723
ONEWEB-0039             
1 45146U 20008R   26186.53425215 -.00000209  00000+0 -63583-3 0  9990
2 45146  87.8813  32.6117 0001396  70.3380 289.7898 13.10372796310562
ONEWEB-0040             
1 45147U 20008S   26186.06930200 -.00000580  00000+0 -16991-2 0  9996
2 45147  87.8818  32.7151 0001987  78.1077 282.0273 13.10372750310206
ONEWEB-0043             
1 45149U 20008U   26186.52929325 -.00000599  00000+0 -17522-2 0  9996
2 45149  87.8825  32.6124 0001522  71.9633 288.1660 13.10368269310587
ONEWEB-0044             
1 45150U 20008V   26186.09991392  .00000656  00000+0  18414-2 0  9996
2 45150  87.8827  32.6989 0001799  80.8866 279.2465 13.10375576310823
ONEWEB-0045             
1 45151U 20008W   26186.47487037 -.00000453  00000+0 -13137-2 0  9999
2 45151  87.8889  17.4192 0001711  87.7738 272.3586 13.11415175312806
ONEWEB-0047             
1 45152U 20008X   26186.55109231  .00000403  00000+0  11182-2 0  9997
2 45152  87.8828  32.6083 0001793  92.7507 267.3825 13.10374415310604
ONEWEB-0048             
1 45153U 20008Y   26186.54613195 -.00000164  00000+0 -50614-3 0  9996
2 45153  87.8820  32.6289 0001804  88.4892 271.6442 13.10375945310216
ONEWEB-0049             
1 45154U 20008Z   26186.54938646  .00000314  00000+0  86225-3 0  9990
2 45154  87.8818  32.6174 0002086  75.9625 284.1735 13.10374115310431
ONEWEB-0051             
1 45155U 20008AA  26186.47318300 -.00000344  00000+0 -10070-2 0  9991
2 45155  87.8880  17.4259 0001855  89.1503 270.9838 13.11415750313488
ONEWEB-0052             
1 45156U 20008AB  26186.57007129  .00000513  00000+0  14325-2 0  9990
2 45156  87.8820  32.6005 0001953  75.1364 284.9980 13.10372459310342
ONEWEB-0053             
1 45157U 20008AC  26186.52575501 -.00000669  00000+0 -19532-2 0  9999
2 45157  87.8817  32.6297 0001700  70.7896 289.3415 13.10372140310319
ONEWEB-0054             
1 45158U 20008AD  26186.10330293  .00000698  00000+0  19640-2 0  9991
2 45158  87.8826  32.6986 0001889  83.9705 276.1637 13.10374317310372
